[
    {
        "Altitude(m)": 604969.0890639503,
        "Argument of Periapsis(deg)": 0.0,
        "Eccentricity": 0.0,
        "Inclination(deg)": 60.0,
        "Latitude(deg)": -0.09260025466149589,
        "Longitude(deg)": 164.9775274647796,
        "Mean Anomaly(deg)": 0.0,
        "RAAN(deg)": 265.0,
        "Satellite Name": "Test1 1166",
        "Satellite Number": 1166,
        "Semi-Major Axis(m)": 6980739.136638005,
        "Time(s)": 0
    },
    {
        "Altitude(m)": 604900.0289803252,
        "Argument of Periapsis(deg)": 0.00010418945913296404,
        "Eccentricity": 0.0,
        "Inclination(deg)": 60.0,
        "Latitude(deg)": 0.44782522914220374,
        "Longitude(deg)": 165.24565131402738,
        "Mean Anomaly(deg)": 0.620106145461853,
        "RAAN(deg)": 264.99957995086027,
        "Satellite Name": "Test1 1166",
        "Satellite Number": 1166,
        "Semi-Major Axis(m)": 6980739.136638005,
        "Time(s)": 10
    },
    {
        "Altitude(m)": 604834.1969586234,
        "Argument of Periapsis(deg)": 0.0002083789182659281,
        "Eccentricity": 0.0,
        "Inclination(deg)": 60.0,
        "Latitude(deg)": 0.9882474855031842,
        "Longitude(deg)": 165.51382657966363,
        "Mean Anomaly(deg)": 1.240212290923655,
        "RAAN(deg)": 264.99915990172053,
        "Satellite Name": "Test1 1166",
        "Satellite Number": 1166,
        "Semi-Major Axis(m)": 6980739.136638005,
        "Time(s)": 20
    },
    {
        "Altitude(m)": 604771.5993776761,
        "Argument of Periapsis(deg)": 0.00031256837739889213,
        "Eccentricity": 0.0,
        "Inclination(deg)": 60.0,
        "Latitude(deg)": 1.528649428324215,
        "Longitude(deg)": 165.7821076511253,
        "Mean Anomaly(deg)": 1.8603184363855083,
        "RAAN(deg)": 264.9987398525808,
        "Satellite Name": "Test1 1166",
        "Satellite Number": 1166,
        "Semi-Major Axis(m)": 6980739.136638005,
        "Time(s)": 30
    },
    {
        "Altitude(m)": 604712.2410864094,
        "Argument of Periapsis(deg)": 0.0004167578365318562,
        "Eccentricity": 0.0,
        "Inclination(deg)": 60.0,
        "Latitude(deg)": 2.069013950044237,
        "Longitude(deg)": 166.0505494863937,
        "Mean Anomaly(deg)": 2.48042458184731,
        "RAAN(deg)": 264.99831980344106,
        "Satellite Name": "Test1 1166",
        "Satellite Number": 1166,
        "Semi-Major Axis(m)": 6980739.136638005,
        "Time(s)": 40
    },
    {
        "Altitude(m)": 604656.1254043026,
        "Argument of Periapsis(deg)": 0.0005209472956648203,
        "Eccentricity": 0.0,
        "Inclination(deg)": 60.0,
        "Latitude(deg)": 2.609323911729298,
        "Longitude(deg)": 166.3192066354295,
        "Mean Anomaly(deg)": 3.1005307273091636,
        "RAAN(deg)": 264.99789975430133,
        "Satellite Name": "Test1 1166",
        "Satellite Number": 1166,
        "Semi-Major Axis(m)": 6980739.136638005,
        "Time(s)": 50
    },
    {
        "Altitude(m)": 604603.2541225875,
        "Argument of Periapsis(deg)": 0.0006251367547977843,
        "Eccentricity": 0.0,
        "Inclination(deg)": 60.0,
        "Latitude(deg)": 3.1495621331203263,
        "Longitude(deg)": 166.5881337765699,
        "Mean Anomaly(deg)": 3.7206368727709656,
        "RAAN(deg)": 264.99747970516154,
        "Satellite Name": "Test1 1166",
        "Satellite Number": 1166,
        "Semi-Major Axis(m)": 6980739.136638005,
        "Time(s)": 60
    },
    {
        "Altitude(m)": 604553.6275061977,
        "Argument of Periapsis(deg)": 0.0007293262139307483,
        "Eccentricity": 0.0,
        "Inclination(deg)": 60.0,
        "Latitude(deg)": 3.689711382628391,
        "Longitude(deg)": 166.85738625304367,
        "Mean Anomaly(deg)": 4.340743018232819,
        "RAAN(deg)": 264.99705965602186,
        "Satellite Name": "Test1 1166",
        "Satellite Number": 1166,
        "Semi-Major Axis(m)": 6980739.136638005,
        "Time(s)": 70
    },
    {
        "Altitude(m)": 604507.2442964644,
        "Argument of Periapsis(deg)": 0.0008335156730637124,
        "Eccentricity": 0.0,
        "Inclination(deg)": 60.0,
        "Latitude(deg)": 4.229754367265155,
        "Longitude(deg)": 167.1270190967602,
        "Mean Anomaly(deg)": 4.96084916369462,
        "RAAN(deg)": 264.99663960688207,
        "Satellite Name": "Test1 1166",
        "Satellite Number": 1166,
        "Semi-Major Axis(m)": 6980739.136638005,
        "Time(s)": 80
    },
    {
        "Altitude(m)": 604464.1017145838,
        "Argument of Periapsis(deg)": 0.0009377051321966765,
        "Eccentricity": 0.0,
        "Inclination(deg)": 60.0,
        "Latitude(deg)": 4.769673722491057,
        "Longitude(deg)": 167.39708756514742,
        "Mean Anomaly(deg)": 5.580955309156474,
        "RAAN(deg)": 264.9962195577423,
        "Satellite Name": "Test1 1166",
        "Satellite Number": 1166,
        "Semi-Major Axis(m)": 6980739.136638005,
        "Time(s)": 90
    },
    {
        "Altitude(m)": 604424.1954658098,
        "Argument of Periapsis(deg)": 0.0010418945913296407,
        "Eccentricity": 0.0,
        "Inclination(deg)": 60.0,
        "Latitude(deg)": 5.3094520019687454,
        "Longitude(deg)": 167.66764767819492,
        "Mean Anomaly(deg)": 6.201061454618327,
        "RAAN(deg)": 264.99579950860254,
        "Satellite Name": "Test1 1166",
        "Satellite Number": 1166,
        "Semi-Major Axis(m)": 6980739.136638005,
        "Time(s)": 100
    },
    {
        "Altitude(m)": 604387.5197444044,
        "Argument of Periapsis(deg)": 0.0011460840504626045,
        "Eccentricity": 0.0,
        "Inclination(deg)": 60.0,
        "Latitude(deg)": 5.8490716672116445,
        "Longitude(deg)": 167.9387552428572,
        "Mean Anomaly(deg)": 6.821167600080129,
        "RAAN(deg)": 264.9953794594628,
        "Satellite Name": "Test1 1166",
        "Satellite Number": 1166,
        "Semi-Major Axis(m)": 6980739.136638005,
        "Time(s)": 110
    },
    {
        "Altitude(m)": 604354.0672393123,
        "Argument of Periapsis(deg)": 0.0012502735095955685,
        "Eccentricity": 0.0,
        "Inclination(deg)": 60.0,
        "Latitude(deg)": 6.388515077107836,
        "Longitude(deg)": 168.21046639059364,
        "Mean Anomaly(deg)": 7.441273745541982,
        "RAAN(deg)": 264.9949594103231,
        "Satellite Name": "Test1 1166",
        "Satellite Number": 1166,
        "Semi-Major Axis(m)": 6980739.136638005,
        "Time(s)": 120
    },
    {
        "Altitude(m)": 604323.8291406108,
        "Argument of Periapsis(deg)": 0.0013544629687285324,
        "Eccentricity": 0.0,
        "Inclination(deg)": 60.0,
        "Latitude(deg)": 6.927764477307237,
        "Longitude(deg)": 168.48283811520108,
        "Mean Anomaly(deg)": 8.061379891003783,
        "RAAN(deg)": 264.99453936118334,
        "Satellite Name": "Test1 1166",
        "Satellite Number": 1166,
        "Semi-Major Axis(m)": 6980739.136638005,
        "Time(s)": 130
    },
    {
        "Altitude(m)": 604296.7951466411,
        "Argument of Periapsis(deg)": 0.0014586524278614966,
        "Eccentricity": 0.0,
        "Inclination(deg)": 60.0,
        "Latitude(deg)": 7.466801989461365,
        "Longitude(deg)": 168.75592729809478,
        "Mean Anomaly(deg)": 8.681486036465637,
        "RAAN(deg)": 264.9941193120436,
        "Satellite Name": "Test1 1166",
        "Satellite Number": 1166,
        "Semi-Major Axis(m)": 6980739.136638005,
        "Time(s)": 140
    },
    {
        "Altitude(m)": 604272.9534719303,
        "Argument of Periapsis(deg)": 0.0015628418869944607,
        "Eccentricity": 0.0,
        "Inclination(deg)": 60.0,
        "Latitude(deg)": 8.005609600294262,
        "Longitude(deg)": 169.02979124681326,
        "Mean Anomaly(deg)": 9.30159218192744,
        "RAAN(deg)": 264.9936992629039,
        "Satellite Name": "Test1 1166",
        "Satellite Number": 1166,
        "Semi-Major Axis(m)": 6980739.136638005,
        "Time(s)": 150
    },
    {
        "Altitude(m)": 604252.290855787,
        "Argument of Periapsis(deg)": 0.0016670313461274247,
        "Eccentricity": 0.0,
        "Inclination(deg)": 60.0,
        "Latitude(deg)": 8.544169150493767,
        "Longitude(deg)": 169.3044882339046,
        "Mean Anomaly(deg)": 9.921698327389292,
        "RAAN(deg)": 264.99327921376414,
        "Satellite Name": "Test1 1166",
        "Satellite Number": 1166,
        "Semi-Major Axis(m)": 6980739.136638005,
        "Time(s)": 160
    },
    {
        "Altitude(m)": 604234.7925716573,
        "Argument of Periapsis(deg)": 0.0017712208052603888,
        "Eccentricity": 0.0,
        "Inclination(deg)": 60.0,
        "Latitude(deg)": 9.082462323409112,
        "Longitude(deg)": 169.5800765233488,
        "Mean Anomaly(deg)": 10.541804472851094,
        "RAAN(deg)": 264.99285916462435,
        "Satellite Name": "Test1 1166",
        "Satellite Number": 1166,
        "Semi-Major Axis(m)": 6980739.136638005,
        "Time(s)": 170
    },
    {
        "Altitude(m)": 604220.4424371711,
        "Argument of Periapsis(deg)": 0.001875410264393353,
        "Eccentricity": 0.0,
        "Inclination(deg)": 60.0,
        "Latitude(deg)": 9.620470633535305,
        "Longitude(deg)": 169.8566149102943,
        "Mean Anomaly(deg)": 11.161910618312948,
        "RAAN(deg)": 264.9924391154846,
        "Satellite Name": "Test1 1166",
        "Satellite Number": 1166,
        "Semi-Major Axis(m)": 6980739.136638005,
        "Time(s)": 180
    },
    {
        "Altitude(m)": 604209.2228249077,
        "Argument of Periapsis(deg)": 0.0019795997235263173,
        "Eccentricity": 0.0,
        "Inclination(deg)": 60.0,
        "Latitude(deg)": 10.158175414769891,
        "Longitude(deg)": 170.1341632612629,
        "Mean Anomaly(deg)": 11.782016763774802,
        "RAAN(deg)": 264.9920190663449,
        "Satellite Name": "Test1 1166",
        "Satellite Number": 1166,
        "Semi-Major Axis(m)": 6980739.136638005,
        "Time(s)": 190
    }
]